ORBCOMM FM24            
1 25478U 98053D   26005.14456098  .00001463  00000+0  51822-3 0  9995
2 25478  45.0083  31.1024 0002711 220.4492 139.6156 14.38730840426521
ORBCOMM FM25            
1 25479U 98053E   26005.32843863  .00001570  00000+0  55282-3 0  9999
2 25479  45.0075  28.5323 0005028 207.0061 153.0527 14.38700009426843
ORBCOMM FM26            
1 25480U 98053F   26005.33919928  .00001459  00000+0  52803-3 0  9990
2 25480  45.0082  26.4602 0007189 213.9264 146.1125 14.37660594426739
ORBCOMM FM27            
1 25481U 98053G   26005.31149097  .00001793  00000+0  62452-3 0  9993
2 25481  45.0058  28.7371 0002457 251.5022 108.5559 14.38737633426771
ORBCOMM FM28            
1 25482U 98053H   26005.18804960  .00001393  00000+0  49440-3 0  9994
2 25482  45.0060 326.5797 0005430 254.4336 105.5913 14.38856429427441
ORBCOMM FM30            
1 25980U 99065A   26005.30605065  .00001155  00000+0  42648-3 0  9999
2 25980  45.0299 212.6658 0006043 306.4533  53.5758 14.37820405363539
ORBCOMM FM31            
1 25981U 99065B   26005.28886983  .00001083  00000+0  40334-3 0  9997
2 25981  45.0211 206.1967 0003660 336.1564  23.9114 14.37745365363089
ORBCOMM FM32            
1 25982U 99065C   26004.91244509  .00001208  00000+0  45292-3 0  9996
2 25982  45.0144 225.9064 0006197 327.4973  32.5493 14.36806795363605
